NORAD_CAT_ID,OBJECT_NAME,OBJECT_TYPE,EPOCH,MEAN_MOTION,ECCENTRICITY,INCLINATION,RA_OF_ASC_NODE,ARG_OF_PERICENTER,MEAN_ANOMALY,BSTAR,MEAN_MOTION_DOT,MEAN_MOTION_DDOT,TLE_LINE0,TLE_LINE1,TLE_LINE2,SEMIMAJOR_AXIS,PERIOD,APOGEE,PERIGEE,DECAYED
55954.0,STARLINK-5892,PAYLOAD,2023-11-07 13:21:36,14.98318129,0.0002773,70.0002,255.4395,266.168,93.9162,-0.00023178,-2.857e-05,0.0,0 STARLINK-5892,1 55954U 23037AS  23311.55667456 -.00002857  00000-0 -23178-3 0  9995,2 55954  70.0002 255.4395 0002773 266.1680  93.9162 14.98318129 36689,6950.23,96.108,574.022,570.167,0.0
55954.0,STARLINK-5892,PAYLOAD,2023-11-08 02:10:38,14.98355392,0.0002409,70.0018,254.095,260.2157,99.873,0.0001866,2.136e-05,0.0,0 STARLINK-5892,1 55954U 23037AS  23312.09072437  .00002136  00000-0  18660-3 0  9992,2 55954  70.0018 254.0950 0002409 260.2157  99.8730 14.98355392 37105,6950.114,96.105,573.654,570.305,0.0
55954.0,STARLINK-5892,PAYLOAD,2023-11-08 05:22:56,14.98338112,0.0002719,70.0002,253.7582,261.3833,98.7018,-5.0627e-05,-6.97e-06,0.0,0 STARLINK-5892,1 55954U 23037AS  23312.22426117 -.00000697  00000-0 -50627-4 0  9997,2 55954  70.0002 253.7582 0002719 261.3833  98.7018 14.98338112 37122,6950.168,96.106,573.923,570.143,0.0
55954.0,STARLINK-5892,PAYLOAD,2023-11-08 21:24:16,14.98322857,0.0002706,70.0003,252.0736,239.3249,120.7643,0.00039595,4.634e-05,0.0,0 STARLINK-5892,1 55954U 23037AS  23312.89185741  .00004634  00000-0  39595-3 0  9998,2 55954  70.0003 252.0736 0002706 239.3249 120.7643 14.98322857 36889,6950.215,96.107,573.961,570.199,0.0
55954.0,STARLINK-5892,PAYLOAD,2023-11-09 05:24:56,14.98336069,0.0002361,70.0009,251.2338,255.368,104.7218,0.00050117,5.893e-05,0.0,0 STARLINK-5892,1 55954U 23037AS  23313.22564846  .00005893  00000-0  50117-3 0  9994,2 55954  70.0009 251.2338 0002361 255.3680 104.7218 14.98336069 37272,6950.174,96.107,573.68,570.398,0.0
55954.0,STARLINK-5892,PAYLOAD,2023-11-09 23:02:25,14.98332027,0.0002757,70.0003,249.3809,259.8228,100.262,6.1646e-05,6.43e-06,0.0,0 STARLINK-5892,1 55954U 23037AS  23313.96002092  .00000643  00000-0  61646-4 0  9993,2 55954  70.0003 249.3809 0002757 259.8228 100.2620 14.98332027 37046,6950.187,96.107,573.968,570.135,0.0
55954.0,STARLINK-5892,PAYLOAD,2023-11-10 03:50:50,14.9832783,0.0002628,70.001,248.8769,256.1656,103.921,1.9466e-05,1.39e-06,0.0,0 STARLINK-5892,1 55954U 23037AS  23314.16030403  .00000139  00000-0  19466-4 0  9996,2 55954  70.0010 248.8769 0002628 256.1656 103.9210 14.98327830 37417,6950.2,96.107,573.891,570.238,0.0
55954.0,STARLINK-5892,PAYLOAD,2023-11-10 13:27:38,14.98336767,0.0002279,70.001,247.8664,265.0084,95.0814,-0.00010928,-1.397e-05,0.0,0 STARLINK-5892,1 55954U 23037AS  23314.56086123 -.00001397  00000-0 -10928-3 0  9992,2 55954  70.0010 247.8664 0002279 265.0084  95.0814 14.98336767 37135,6950.172,96.107,573.621,570.453,0.0
55954.0,STARLINK-5892,PAYLOAD,2023-11-10 19:52:10,14.9833913,0.0002301,70.0007,247.1924,255.4755,104.6149,-0.00014053,-1.77e-05,0.0,0 STARLINK-5892,1 55954U 23037AS  23314.82789841 -.00001770  00000-0 -14053-3 0  9996,2 55954  70.0007 247.1924 0002301 255.4755 104.6149 14.98339130 37514,6950.165,96.106,573.629,570.43,0.0
55954.0,STARLINK-5892,PAYLOAD,2023-11-10 21:28:18,14.98338518,0.0002484,70.0004,247.0238,261.3517,98.7361,-0.00014913,-1.872e-05,0.0,0 STARLINK-5892,1 55954U 23037AS  23314.89465794 -.00001872  00000-0 -14913-3 0  9999,2 55954  70.0004 247.0238 0002484 261.3517  98.7361 14.98338518 37183,6950.167,96.106,573.758,570.305,0.0
55954.0,STARLINK-5892,PAYLOAD,2023-11-11 13:29:39,14.98307746,0.0002226,70.0008,245.3407,277.1979,82.8927,0.00039403,4.609e-05,0.0,0 STARLINK-5892,1 55954U 23037AS  23315.56226398  .00004609  00000-0  39403-3 0  9999,2 55954  70.0008 245.3407 0002226 277.1979  82.8927 14.98307746 37289,6950.262,96.108,573.674,570.58,0.0
55954.0,STARLINK-5892,PAYLOAD,2023-11-11 19:54:11,14.9831423,0.0002433,70.0007,244.6671,265.474,94.6142,0.00024655,2.849e-05,0.0,0 STARLINK-5892,1 55954U 23037AS  23315.82929669  .00002849  00000-0  24655-3 0  9996,2 55954  70.0007 244.6671 0002433 265.4740  94.6142 14.98314230 37667,6950.242,96.108,573.798,570.416,0.0
55954.0,STARLINK-5892,PAYLOAD,2023-11-11 21:30:19,14.98324654,0.0002512,70.0006,244.4988,266.1656,93.9216,6.5659e-05,6.9e-06,0.0,0 STARLINK-5892,1 55954U 23037AS  23315.89605685  .00000690  00000-0  65659-4 0  9994,2 55954  70.0006 244.4988 0002512 266.1656  93.9216 14.98324654 37336,6950.209,96.107,573.82,570.329,0.0
55954.0,STARLINK-5892,PAYLOAD,2023-11-12 05:30:59,14.98322563,0.0002543,70.0004,243.658,266.9834,93.1034,0.00011378,1.265e-05,0.0,0 STARLINK-5892,1 55954U 23037AS  23316.22985800  .00001265  00000-0  11378-3 0  9999,2 55954  70.0004 243.6580 0002543 266.9834  93.1034 14.98322563 37385,6950.216,96.107,573.848,570.313,0.0
55954.0,STARLINK-5892,PAYLOAD,2023-11-12 19:56:12,14.98329532,0.0002562,70.0003,242.1432,269.7153,90.3712,1.3379e-05,6.7e-07,0.0,0 STARLINK-5892,1 55954U 23037AS  23316.83069589  .00000067  00000-0  13379-4 0  9996,2 55954  70.0003 242.1432 0002562 269.7153  90.3712 14.98329532 37813,6950.194,96.107,573.84,570.279,0.0
55954.0,STARLINK-5892,PAYLOAD,2023-11-12 21:32:20,14.98330109,0.0002565,70.0004,241.9748,269.7307,90.3558,2.0562e-05,1.52e-06,0.0,0 STARLINK-5892,1 55954U 23037AS  23316.89745530  .00000152  00000-0  20562-4 0  9996,2 55954  70.0004 241.9748 0002565 269.7307  90.3558 14.98330109 37488,6950.193,96.107,573.84,570.275,0.0
55954.0,STARLINK-5892,PAYLOAD,2023-11-13 03:56:51,14.9833507,0.0002625,70.0005,241.3016,271.6588,88.427,6.6055e-05,6.95e-06,0.0,0 STARLINK-5892,1 55954U 23037AS  23317.16449055  .00000695  00000-0  66055-4 0  9999,2 55954  70.0005 241.3016 0002625 271.6588  88.4270 14.98335070 37864,6950.177,96.107,573.867,570.218,0.0
55954.0,STARLINK-5892,PAYLOAD,2023-11-13 11:57:32,14.98324531,0.0002418,70.0006,240.4607,269.2231,90.8651,0.00020397,2.341e-05,0.0,0 STARLINK-5892,1 55954U 23037AS  23317.49829346  .00002341  00000-0  20397-3 0  9998,2 55954  70.0006 240.4607 0002418 269.2231  90.8651 14.98324531 37915,6950.21,96.107,573.755,570.394,0.0
55954.0,STARLINK-5892,PAYLOAD,2023-11-14 11:59:32,14.98374441,0.0002504,70.0019,237.9358,283.2125,76.8754,-0.00084492,-0.00010171,0.0,0 STARLINK-5892,1 55954U 23037AS  23318.49968432 -.00010171  00000-0 -84492-3 0  9997,2 55954  70.0019 237.9358 0002504 283.2125  76.8754 14.98374441 38067,6950.055,96.104,573.661,570.18,0.0
55954.0,STARLINK-5892,PAYLOAD,2023-11-14 18:24:05,14.98330712,0.0002482,70.0009,237.2639,272.8597,87.2278,-6.9754e-05,-9.25e-06,0.0,0 STARLINK-5892,1 55954U 23037AS  23318.76673593 -.00000925  00000-0 -69754-4 0  9999,2 55954  70.0009 237.2639 0002482 272.8597  87.2278 14.98330712 38108,6950.191,96.107,573.781,570.331,0.0
55954.0,STARLINK-5892,PAYLOAD,2023-11-15 04:00:54,14.98329307,0.0002552,70.0004,236.2539,274.188,85.8987,-8.6527e-05,-1.125e-05,0.0,0 STARLINK-5892,1 55954U 23037AS  23319.16729796 -.00001125  00000-0 -86527-4 0  9991,2 55954  70.0004 236.2539 0002552 274.1880  85.8987 14.98329307 37826,6950.195,96.107,573.834,570.286,0.0
55954.0,STARLINK-5892,PAYLOAD,2023-11-16 02:26:46,14.98333589,0.0002328,70.0034,233.8951,315.279,44.8181,9.7707e-05,1.073e-05,0.0,0 STARLINK-5892,1 55954U 23037AS  23320.10193159  .00001073  00000-0  97707-4 0  9997,2 55954  70.0034 233.8951 0002328 315.2790  44.8181 14.98333589 38300,6950.182,96.107,573.665,570.429,0.0
55954.0,STARLINK-5892,PAYLOAD,2023-11-16 04:02:54,14.98335773,0.0002149,70.0032,233.7269,307.119,52.9773,0.00011551,1.286e-05,0.0,0 STARLINK-5892,1 55954U 23037AS  23320.16868873  .00001286  00000-0  11551-3 0  9993,2 55954  70.0032 233.7269 0002149 307.1190  52.9773 14.98335773 37970,6950.175,96.107,573.534,570.546,0.0
55954.0,STARLINK-5892,PAYLOAD,2023-11-17 04:04:56,14.98318027,0.0001753,70.0029,231.2048,294.4588,65.6388,-8.4545e-06,-1.94e-06,0.0,0 STARLINK-5892,1 55954U 23037AS  23321.17010314 -.00000194  00000-0 -84545-5 0  9998,2 55954  70.0029 231.2048 0001753 294.4588  65.6388 14.98318027 38464,6950.23,96.108,573.313,570.877,0.0
55954.0,STARLINK-5892,PAYLOAD,2023-11-17 12:05:36,14.98329299,0.0002525,70.0012,230.362,287.418,72.6703,-7.8391e-05,-1.028e-05,0.0,0 STARLINK-5892,1 55954U 23037AS  23321.50389623 -.00001028  00000-0 -78391-4 0  9995,2 55954  70.0012 230.3620 0002525 287.4180  72.6703 14.98329299 38518,6950.195,96.107,573.815,570.305,0.0
55954.0,STARLINK-5892,PAYLOAD,2023-11-17 16:54:00,14.98333562,0.0002738,70.0006,229.8558,274.0099,86.0747,-0.00013824,-1.742e-05,0.0,0 STARLINK-5892,1 55954U 23037AS  23321.70417431 -.00001742  00000-0 -13824-3 0  9998,2 55954  70.0006 229.8558 0002738 274.0099  86.0747 14.98333562 38202,6950.182,96.107,573.95,570.144,0.0
55954.0,STARLINK-5892,PAYLOAD,2023-11-18 04:06:56,14.9833369,0.0002698,70.0007,228.6781,275.259,84.8261,-0.00011063,-1.413e-05,0.0,0 STARLINK-5892,1 55954U 23037AS  23322.17149259 -.00001413  00000-0 -11063-3 0  9998,2 55954  70.0007 228.6781 0002698 275.2590  84.8261 14.98333690 38278,6950.181,96.107,573.922,570.171,0.0
55954.0,STARLINK-5892,PAYLOAD,2023-11-18 16:56:01,14.9832849,0.000291,70.0004,227.3317,272.5136,87.569,5.2799e-05,5.37e-06,0.0,0 STARLINK-5892,1 55954U 23037AS  23322.70557045  .00000537  00000-0  52799-4 0  9999,2 55954  70.0004 227.3317 0002910 272.5136  87.5690 14.98328490 38693,6950.198,96.107,574.085,570.04,0.0
55954.0,STARLINK-5892,PAYLOAD,2023-11-19 10:33:29,14.98323983,0.0002711,70.0008,225.4798,276.1626,83.9224,0.00019785,2.268e-05,0.0,0 STARLINK-5892,1 55954U 23037AS  23323.43992989  .00002268  00000-0  19785-3 0  9990,2 55954  70.0008 225.4798 0002711 276.1626  83.9224 14.98323983 38462,6950.211,96.107,573.961,570.192,0.0
55954.0,STARLINK-5892,PAYLOAD,2023-11-19 20:10:18,14.98330076,0.0002785,70.0009,224.4702,271.4412,88.6428,7.7627e-05,8.33e-06,0.0,0 STARLINK-5892,1 55954U 23037AS  23323.84048789  .00000833  00000-0  77627-4 0  9991,2 55954  70.0009 224.4702 0002785 271.4412  88.6428 14.98330076 38862,6950.193,96.107,573.993,570.122,0.0
